NORAD_CAT_ID,OBJECT_NAME,OBJECT_TYPE,EPOCH,MEAN_MOTION,ECCENTRICITY,INCLINATION,RA_OF_ASC_NODE,ARG_OF_PERICENTER,MEAN_ANOMALY,BSTAR,MEAN_MOTION_DOT,MEAN_MOTION_DDOT,TLE_LINE0,TLE_LINE1,TLE_LINE2,SEMIMAJOR_AXIS,PERIOD,APOGEE,PERIGEE,DECAYED
53995.0,STARLINK-5097,PAYLOAD,2024-03-27 13:06:19,15.0885533,0.0001944,53.2163,171.0203,76.6174,283.5035,0.00073999,0.00011513,0.0,0 STARLINK-5097,1 53995U 22125AH  24087.54606161  .00011513  00000-0  73999-3 0  9994,2 53995  53.2163 171.0203 0001944  76.6174 283.5035 15.08855330 82022,6917.834,95.437,541.043,538.354,0.0
53995.0,STARLINK-5097,PAYLOAD,2024-03-28 05:00:11,15.08837866,0.0001465,53.2157,168.0459,85.0635,275.0525,0.00017159,2.444e-05,0.0,0 STARLINK-5097,1 53995U 22125AH  24088.20846607  .00002444  00000-0  17159-3 0  9998,2 53995  53.2157 168.0459 0001465  85.0635 275.0525 15.08837866 82123,6917.887,95.438,540.765,538.738,0.0
53995.0,STARLINK-5097,PAYLOAD,2024-03-28 11:21:43,15.08844905,0.0001278,53.2146,166.8588,82.1414,277.9723,0.00018695,2.689e-05,0.0,0 STARLINK-5097,1 53995U 22125AH  24088.47342160  .00002689  00000-0  18695-3 0  9999,2 53995  53.2146 166.8588 0001278  82.1414 277.9723 15.08844905 82083,6917.865,95.437,540.614,538.846,0.0
53995.0,STARLINK-5097,PAYLOAD,2024-03-28 22:29:25,15.08854326,0.0001335,53.2145,164.7773,105.0122,255.1018,0.00019213,2.772e-05,0.0,0 STARLINK-5097,1 53995U 22125AH  24088.93709525  .00002772  00000-0  19213-3 0  9992,2 53995  53.2145 164.7773 0001335 105.0122 255.1018 15.08854326 82151,6917.837,95.437,540.625,538.778,0.0
53995.0,STARLINK-5097,PAYLOAD,2024-03-29 04:50:57,15.08851479,0.0001744,53.2155,163.5863,91.4367,268.6825,-4.5857e-05,-1.018e-05,0.0,0 STARLINK-5097,1 53995U 22125AH  24089.20205459 -.00001018  00000-0 -45857-4 0  9998,2 53995  53.2155 163.5863 0001744  91.4367 268.6825 15.08851479 82276,6917.845,95.437,540.917,538.504,0.0
53995.0,STARLINK-5097,PAYLOAD,2024-03-29 11:12:29,15.08852372,0.0001646,53.2155,162.3978,91.0094,269.1087,-3.3259e-05,-8.18e-06,0.0,0 STARLINK-5097,1 53995U 22125AH  24089.46701188 -.00000818  00000-0 -33259-4 0  9996,2 53995  53.2155 162.3978 0001646  91.0094 269.1087 15.08852372 82239,6917.843,95.437,540.846,538.569,0.0
53995.0,STARLINK-5097,PAYLOAD,2024-03-29 22:20:11,15.08846093,0.0001622,53.215,160.3164,86.6742,273.4435,2.5505e-05,1.18e-06,0.0,0 STARLINK-5097,1 53995U 22125AH  24089.93069405  .00000118  00000-0  25505-4 0  9993,2 53995  53.2150 160.3164 0001622  86.6742 273.4435 15.08846093 82309,6917.862,95.437,540.849,538.605,0.0
53995.0,STARLINK-5097,PAYLOAD,2024-03-30 04:41:44,15.08842358,0.000167,53.2155,159.127,82.3282,277.79,0.00012421,1.689e-05,0.0,0 STARLINK-5097,1 53995U 22125AH  24090.19565676  .00001689  00000-0  12421-3 0  9990,2 53995  53.2155 159.1270 0001670  82.3282 277.7900 15.08842358 82420,6917.873,95.437,540.893,538.583,0.0
53995.0,STARLINK-5097,PAYLOAD,2024-03-30 11:03:17,15.08842442,0.0001547,53.2157,157.937,85.1131,275.0038,0.0001385,1.917e-05,0.0,0 STARLINK-5097,1 53995U 22125AH  24090.46061678  .00001917  00000-0  13850-3 0  9994,2 53995  53.2157 157.9370 0001547  85.1131 275.0038 15.08842442 82388,6917.873,95.437,540.808,538.668,0.0
53995.0,STARLINK-5097,PAYLOAD,2024-03-31 10:54:03,15.08844476,0.000149,53.2166,153.4762,90.1765,269.9398,0.00014,1.941e-05,0.0,0 STARLINK-5097,1 53995U 22125AH  24091.45421190  .00001941  00000-0  14000-3 0  9998,2 53995  53.2166 153.4762 0001490  90.1765 269.9398 15.08844476 82616,6917.867,95.437,540.762,538.701,0.0
53995.0,STARLINK-5097,PAYLOAD,2024-03-31 20:26:22,15.08842591,0.000158,53.217,151.6921,88.0045,272.1128,-5.5571e-06,-3.76e-06,0.0,0 STARLINK-5097,1 53995U 22125AH  24091.85165483 -.00000376  00000-0 -55571-5 0  9995,2 53995  53.2170 151.6921 0001580  88.0045 272.1128 15.08842591 82595,6917.872,95.437,540.83,538.644,0.0
53995.0,STARLINK-5097,PAYLOAD,2024-04-01 04:23:19,15.08834797,0.0001538,53.2164,150.2052,85.7715,274.3453,5.783e-05,6.32e-06,0.0,0 STARLINK-5097,1 53995U 22125AH  24092.18285907  .00000632  00000-0  57830-4 0  9998,2 53995  53.2164 150.2052 0001538  85.7715 274.3453 15.08834797 82728,6917.896,95.438,540.825,538.697,0.0
53995.0,STARLINK-5097,PAYLOAD,2024-04-01 10:44:51,15.08840119,0.0001529,53.217,149.0165,87.4561,272.6606,9.2696e-05,1.188e-05,0.0,0 STARLINK-5097,1 53995U 22125AH  24092.44781501  .00001188  00000-0  92696-4 0  9994,2 53995  53.2170 149.0165 0001529  87.4561 272.6606 15.08840119 82685,6917.88,95.438,540.803,538.687,0.0
53995.0,STARLINK-5097,PAYLOAD,2024-04-02 10:35:38,15.08840157,0.0001426,53.217,144.5575,86.7557,273.3598,5.5538e-05,5.96e-06,0.0,0 STARLINK-5097,1 53995U 22125AH  24093.44141611  .00000596  00000-0  55538-4 0  9993,2 53995  53.2170 144.5575 0001426  86.7557 273.3598 15.08840157 82919,6917.88,95.438,540.731,538.758,0.0
53995.0,STARLINK-5097,PAYLOAD,2024-04-02 20:07:57,15.08842399,0.0001436,53.2167,142.7736,93.4058,266.7098,-4.3425e-06,-3.57e-06,0.0,0 STARLINK-5097,1 53995U 22125AH  24093.83885572 -.00000357  00000-0 -43425-5 0  9997,2 53995  53.2167 142.7736 0001436  93.4058 266.7098 15.08842399 82894,6917.873,95.437,540.731,538.745,0.0
53995.0,STARLINK-5097,PAYLOAD,2024-04-03 12:01:49,15.08833104,0.0001472,53.2168,139.8003,97.8041,262.3118,-1.1353e-05,-4.69e-06,0.0,0 STARLINK-5097,1 53995U 22125AH  24094.50126425 -.00000469  00000-0 -11353-4 0  9995,2 53995  53.2168 139.8003 0001472  97.8041 262.3118 15.08833104 83079,6917.901,95.438,540.785,538.748,0.0
53995.0,STARLINK-5097,PAYLOAD,2024-04-03 19:58:44,15.08834302,0.0001501,53.2173,138.3121,91.4166,268.6998,1.4178e-05,-6.2e-07,0.0,0 STARLINK-5097,1 53995U 22125AH  24094.83246401 -.00000062  00000-0  14178-4 0  9994,2 53995  53.2173 138.3121 0001501  91.4166 268.6998 15.08834302 83044,6917.898,95.438,540.801,538.724,0.0
53995.0,STARLINK-5097,PAYLOAD,2024-04-04 10:17:13,15.08837044,0.0001501,53.217,135.6358,90.4188,269.6976,1.8775e-05,1.1e-07,0.0,0 STARLINK-5097,1 53995U 22125AH  24095.42862403  .00000011  00000-0  18775-4 0  9996,2 53995  53.2170 135.6358 0001501  90.4188 269.6976 15.08837044 83139,6917.889,95.438,540.793,538.716,0.0
53995.0,STARLINK-5097,PAYLOAD,2024-04-04 19:49:31,15.08838478,0.0001571,53.2174,133.8498,85.9758,274.1414,3.3037e-05,2.38e-06,0.0,0 STARLINK-5097,1 53995U 22125AH  24095.82606329  .00000238  00000-0  33037-4 0  9992,2 53995  53.2174 133.8498 0001571  85.9758 274.1414 15.08838478 83272,6917.885,95.438,540.837,538.663,0.0
53995.0,STARLINK-5097,PAYLOAD,2024-04-05 11:43:22,15.08842937,0.000143,53.2162,130.8751,89.048,271.0676,0.00011911,1.608e-05,0.0,0 STARLINK-5097,1 53995U 22125AH  24096.48845795  .00001608  00000-0  11911-3 0  9995,2 53995  53.2162 130.8751 0001430  89.0480 271.0676 15.08842937 83292,6917.871,95.437,540.726,538.747,0.0
53995.0,STARLINK-5097,PAYLOAD,2024-04-06 11:34:09,15.08842872,0.0001407,53.216,126.4137,92.0584,268.0569,6.336e-05,7.21e-06,0.0,0 STARLINK-5097,1 53995U 22125AH  24097.48205905  .00000721  00000-0  63360-4 0  9990,2 53995  53.2160 126.4137 0001407  92.0584 268.0569 15.08842872 83444,6917.872,95.437,540.71,538.763,0.0
53995.0,STARLINK-5097,PAYLOAD,2024-04-06 19:31:05,15.08839802,0.0001398,53.2159,124.9267,92.288,267.8273,3.431e-05,2.58e-06,0.0,0 STARLINK-5097,1 53995U 22125AH  24097.81326137  .00000258  00000-0  34310-4 0  9996,2 53995  53.2159 124.9267 0001398  92.2880 267.8273 15.08839802 83571,6917.881,95.438,540.713,538.779,0.0
53995.0,STARLINK-5097,PAYLOAD,2024-04-07 11:24:57,15.08841388,0.0001459,53.2165,121.9546,87.9208,272.1951,-2.1323e-05,-6.27e-06,0.0,0 STARLINK-5097,1 53995U 22125AH  24098.47566280 -.00000627  00000-0 -21323-4 0  9996,2 53995  53.2165 121.9546 0001459  87.9208 272.1951 15.08841388 83594,6917.876,95.437,540.75,538.732,0.0
53995.0,STARLINK-5097,PAYLOAD,2024-04-08 04:54:11,15.08839758,0.0001419,53.2156,118.6836,87.2929,272.8226,2.2728e-05,7.4e-07,0.0,0 STARLINK-5097,1 53995U 22125AH  24099.20430211  .00000074  00000-0  22728-4 0  9996,2 53995  53.2156 118.6836 0001419  87.2929 272.8226 15.08839758 83789,6917.881,95.438,540.728,538.764,0.0
53995.0,STARLINK-5097,PAYLOAD,2024-04-08 11:15:44,15.08839629,0.0001493,53.217,117.4938,88.2965,271.8199,4.7437e-05,4.67e-06,0.0,0 STARLINK-5097,1 53995U 22125AH  24099.46926142  .00000467  00000-0  47437-4 0  9997,2 53995  53.2170 117.4938 0001493  88.2965 271.8199 15.08839629 83749,6917.882,95.438,540.779,538.714,0.0
53995.0,STARLINK-5097,PAYLOAD,2024-04-08 17:37:16,15.08838768,0.000142,53.2158,116.3045,87.2419,272.8736,1.2525e-05,-8.9e-07,0.0,0 STARLINK-5097,1 53995U 22125AH  24099.73422325 -.00000089  00000-0  12525-4 0  9992,2 53995  53.2158 116.3045 0001420  87.2419 272.8736 15.08838768 83780,6917.884,95.438,540.731,538.767,0.0
53995.0,STARLINK-5097,PAYLOAD,2024-04-09 07:55:45,15.08835922,0.0001463,53.217,113.6283,86.7256,273.3903,4.3797e-05,4.09e-06,0.0,0 STARLINK-5097,1 53995U 22125AH  24100.33038567  .00000409  00000-0  43797-4 0  9992,2 53995  53.2170 113.6283 0001463  86.7256 273.3903 15.08835922 83958,6917.893,95.438,540.77,538.746,0.0
53995.0,STARLINK-5097,PAYLOAD,2024-04-10 10:57:18,15.08841666,0.0001442,53.2172,108.5744,93.9195,266.1962,6.2963e-05,7.14e-06,0.0,0 STARLINK-5097,1 53995U 22125AH  24101.45646259  .00000714  00000-0  62963-4 0  9994,2 53995  53.2172 108.5744 0001442  93.9195 266.1962 15.08841666 84121,6917.875,95.437,540.738,538.743,0.0
53995.0,STARLINK-5097,PAYLOAD,2024-04-10 17:18:51,15.08838021,0.000136,53.2169,107.3842,87.9063,272.2085,3.5332e-05,2.74e-06,0.0,0 STARLINK-5097,1 53995U 22125AH  24101.72142563  .00000274  00000-0  35332-4 0  9994,2 53995  53.2169 107.3842 0001360  87.9063 272.2085 15.08838021 84089,6917.886,95.438,540.692,538.811,0.0
53995.0,STARLINK-5097,PAYLOAD,2024-04-11 04:26:33,15.0883133,0.0001432,53.2177,105.3031,89.5419,270.5737,-1.7661e-06,-3.16e-06,0.0,0 STARLINK-5097,1 53995U 22125AH  24102.18511292 -.00000316  00000-0 -17661-5 0  9999,2 53995  53.2177 105.3031 0001432  89.5419 270.5737 15.08831330 84237,6917.907,95.438,540.763,538.781,0.0
